{
  "norad_id": 66038,
  "name": "QIANFAN-96",
  "history": [
    {
      "epoch": "2026-05-04T04:14:52.469088Z",
      "apogee_km": 1070.3608248760875,
      "perigee_km": 1066.693789504655,
      "latitude_deg": 8.755428302748576e-07,
      "longitude_deg": 121.85620019480926,
      "height_km": 1070.8659695521926,
      "semi_major_axis_km": 7446.664307190371,
      "eccentricity": 0.00024622,
      "inclination_deg": 89.002,
      "raan_deg": 47.6449,
      "arg_perigee_deg": 70.547,
      "mean_anomaly_deg": 289.5947,
      "mean_motion_rev_day": 13.51014771
    },
    {
      "epoch": "2026-05-05T17:34:31.367136Z",
      "apogee_km": 1070.3387064724093,
      "perigee_km": 1066.7121818621,
      "latitude_deg": 8.6198564694904e-06,
      "longitude_deg": -79.74566542602895,
      "height_km": 1070.850424595467,
      "semi_major_axis_km": 7446.662444167254,
      "eccentricity": 0.0002435,
      "inclination_deg": 89.0019,
      "raan_deg": 47.4881,
      "arg_perigee_deg": 69.8589,
      "mean_anomaly_deg": 290.2824,
      "mean_motion_rev_day": 13.51015278
    },
    {
      "epoch": "2026-05-06T20:14:16.255680Z",
      "apogee_km": 1070.3314333164353,
      "perigee_km": 1066.7168240045821,
      "latitude_deg": -6.149992845502157e-05,
      "longitude_deg": -120.8896951846798,
      "height_km": 1070.8434309373501,
      "semi_major_axis_km": 7446.661128660508,
      "eccentricity": 0.0002427,
      "inclination_deg": 89.002,
      "raan_deg": 47.3761,
      "arg_perigee_deg": 69.5966,
      "mean_anomaly_deg": 290.5445,
      "mean_motion_rev_day": 13.51015636
    },
    {
      "epoch": "2026-05-07T19:20:43.145088Z",
      "apogee_km": 1070.316196717261,
      "perigee_km": 1066.7298852415252,
      "latitude_deg": 8.265686326608821e-06,
      "longitude_deg": -108.54772660244208,
      "height_km": 1070.8360397745923,
      "semi_major_axis_km": 7446.660040979393,
      "eccentricity": 0.0002408,
      "inclination_deg": 89.002,
      "raan_deg": 47.2791,
      "arg_perigee_deg": 69.212,
      "mean_anomaly_deg": 290.9289,
      "mean_motion_rev_day": 13.51015932
    },
    {
      "epoch": "2026-05-08T20:13:48.997344Z",
      "apogee_km": 1070.299445062512,
      "perigee_km": 1066.7444100904877,
      "latitude_deg": 2.256687475383168e-06,
      "longitude_deg": -122.94860310251231,
      "height_km": 1070.8288482282028,
      "semi_major_axis_km": 7446.6589275765,
      "eccentricity": 0.0002387,
      "inclination_deg": 89.0021,
      "raan_deg": 47.1746,
      "arg_perigee_deg": 68.8089,
      "mean_anomaly_deg": 291.3317,
      "mean_motion_rev_day": 13.51016235
    },
    {
      "epoch": "2026-05-09T19:20:15.853056Z",
      "apogee_km": 1070.2912559587849,
      "perigee_km": 1066.7511146574898,
      "latitude_deg": 3.827649734452733e-05,
      "longitude_deg": -110.60659296496665,
      "height_km": 1070.8259858578137,
      "semi_major_axis_km": 7446.658185308137,
      "eccentricity": 0.0002377,
      "inclination_deg": 89.0021,
      "raan_deg": 47.0775,
      "arg_perigee_deg": 68.6412,
      "mean_anomaly_deg": 291.4993,
      "mean_motion_rev_day": 13.51016437
    },
    {
      "epoch": "2026-05-10T18:26:42.693216Z",
      "apogee_km": 1070.2867093251925,
      "perigee_km": 1066.7540150725654,
      "latitude_deg": -8.259941375854825e-08,
      "longitude_deg": -98.26441827035265,
      "height_km": 1070.8251202602694,
      "semi_major_axis_km": 7446.657362198879,
      "eccentricity": 0.0002372,
      "inclination_deg": 89.0022,
      "raan_deg": 46.9805,
      "arg_perigee_deg": 68.5919,
      "mean_anomaly_deg": 291.5485,
      "mean_motion_rev_day": 13.51016661
    }
  ]
}